{
  "type": "FeatureCollection",
  "features": [
    {
      "type": "Feature",
      "properties": {
        "norad_id": 66639,
        "name": "STARLINK-35908",
        "group": "last-30-days",
        "lat": -22.77870255996977,
        "lon": 141.47814853074067,
        "alt_km": 422.04341487198053,
        "timestamp": "2025-12-18T10:51:24.514481+00:00",
        "meta_object_name": "STARLINK-35908",
        "meta_object_id": "2025-271Y",
        "meta_epoch": "2025-12-17T19:29:59.552448",
        "meta_mean_motion": 15.49327209,
        "meta_eccentricity": 9.86e-05,
        "meta_inclination": 53.1597,
        "meta_ra_of_asc_node": 162.8893,
        "meta_arg_of_pericenter": 80.3039,
        "meta_mean_anomaly": 279.8082,
        "meta_ephemeris_type": 0,
        "meta_classification_type": "U",
        "meta_norad_cat_id": 66639,
        "meta_element_set_no": 999,
        "meta_rev_at_epoch": 499,
        "meta_bstar": 0.0010017215,
        "meta_mean_motion_dot": 0.00055697,
        "meta_mean_motion_ddot": 0,
        "tle_line1": "1 66639U 25271Y   25351.81249482  .00055697  00000+0  10017-2 0  9993",
        "tle_line2": "2 66639  53.1597 162.8893 0000986  80.3039 279.8082 15.49327209  4995"
      },
      "geometry": {
        "type": "Point",
        "coordinates": [
          141.47814853074067,
          -22.77870255996977
        ]
      }
    },
    {
      "type": "Feature",
      "properties": {
        "norad_id": 66640,
        "name": "STARLINK-35921",
        "group": "last-30-days",
        "lat": -21.023223622850693,
        "lon": 143.0753810835002,
        "alt_km": 421.5000887988863,
        "timestamp": "2025-12-18T10:51:24.514493+00:00",
        "meta_object_name": "STARLINK-35921",
        "meta_object_id": "2025-271Z",
        "meta_epoch": "2025-12-17T02:27:41.322240",
        "meta_mean_motion": 15.49331878,
        "meta_eccentricity": 0.0001586,
        "meta_inclination": 53.1597,
        "meta_ra_of_asc_node": 166.2791,
        "meta_arg_of_pericenter": 66.7649,
        "meta_mean_anomaly": 293.3527,
        "meta_ephemeris_type": 0,
        "meta_classification_type": "U",
        "meta_norad_cat_id": 66640,
        "meta_element_set_no": 999,
        "meta_rev_at_epoch": 488,
        "meta_bstar": 0.001103034,
        "meta_mean_motion_dot": 0.00061432,
        "meta_mean_motion_ddot": 0,
        "tle_line1": "1 66640U 25271Z   25351.10256160  .00061432  00000+0  11030-2 0  9998",
        "tle_line2": "2 66640  53.1597 166.2791 0001586  66.7649 293.3527 15.49331878  4884"
      },
      "geometry": {
        "type": "Point",
        "coordinates": [
          143.0753810835002,
          -21.023223622850693
        ]
      }
    },
    {
      "type": "Feature",
      "properties": {
        "norad_id": 66641,
        "name": "STARLINK-35923",
        "group": "last-30-days",
        "lat": -15.38513805869503,
        "lon": 147.9014809475403,
        "alt_km": 421.3337217766657,
        "timestamp": "2025-12-18T10:51:24.514503+00:00",
        "meta_object_name": "STARLINK-35923",
        "meta_object_id": "2025-271AA",
        "meta_epoch": "2025-12-17T21:00:24.639552",
        "meta_mean_motion": 15.49342036,
        "meta_eccentricity": 0.0001304,
        "meta_inclination": 53.1594,
        "meta_ra_of_asc_node": 162.5676,
        "meta_arg_of_pericenter": 79.6341,
        "meta_mean_anomaly": 280.4815,
        "meta_ephemeris_type": 0,
        "meta_classification_type": "U",
        "meta_norad_cat_id": 66641,
        "meta_element_set_no": 999,
        "meta_rev_at_epoch": 500,
        "meta_bstar": 0.00075738673,
        "meta_mean_motion_dot": 0.0004195,
        "meta_mean_motion_ddot": 0,
        "tle_line1": "1 66641U 25271AA  25351.87528518  .00041950  00000+0  75739-3 0  9992",
        "tle_line2": "2 66641  53.1594 162.5676 0001304  79.6341 280.4815 15.49342036  5003"
      },
      "geometry": {
        "type": "Point",
        "coordinates": [
          147.9014809475403,
          -15.38513805869503
        ]
      }
    },
    {
      "type": "Feature",
      "properties": {
        "norad_id": 66642,
        "name": "STARLINK-35926",
        "group": "last-30-days",
        "lat": -16.90901115833472,
        "lon": 146.63747784077393,
        "alt_km": 421.48561745043753,
        "timestamp": "2025-12-18T10:51:24.514515+00:00",
        "meta_object_name": "STARLINK-35926",
        "meta_object_id": "2025-271AB",
        "meta_epoch": "2025-12-17T21:00:54.393120",
        "meta_mean_motion": 15.49323144,
        "meta_eccentricity": 8.688e-05,
        "meta_inclination": 53.1593,
        "meta_ra_of_asc_node": 162.5706,
        "meta_arg_of_pericenter": 80.6626,
        "meta_mean_anomaly": 279.4481,
        "meta_ephemeris_type": 0,
        "meta_classification_type": "U",
        "meta_norad_cat_id": 66642,
        "meta_element_set_no": 999,
        "meta_rev_at_epoch": 496,
        "meta_bstar": 0.00089082651,
        "meta_mean_motion_dot": 0.00049434,
        "meta_mean_motion_ddot": 0,
        "tle_line1": "1 66642U 25271AB  25351.87562955  .00049434  00000+0  89083-3 0  9998",
        "tle_line2": "2 66642  53.1593 162.5706 0000868  80.6626 279.4481 15.49323144  4969"
      },
      "geometry": {
        "type": "Point",
        "coordinates": [
          146.63747784077393,
          -16.90901115833472
        ]
      }
    },
    {
      "type": "Feature",
      "properties": {
        "norad_id": 66643,
        "name": "STARLINK-35918",
        "group": "last-30-days",
        "lat": -19.93177784242915,
        "lon": 144.04547541218602,
        "alt_km": 421.9175375525456,
        "timestamp": "2025-12-18T10:51:24.514526+00:00",
        "meta_object_name": "STARLINK-35918",
        "meta_object_id": "2025-271AC",
        "meta_epoch": "2025-12-17T19:29:01.877856",
        "meta_mean_motion": 15.49306868,
        "meta_eccentricity": 0.00013675,
        "meta_inclination": 53.1597,
        "meta_ra_of_asc_node": 162.8848,
        "meta_arg_of_pericenter": 89.192,
        "meta_mean_anomaly": 270.9246,
        "meta_ephemeris_type": 0,
        "meta_classification_type": "U",
        "meta_norad_cat_id": 66643,
        "meta_element_set_no": 999,
        "meta_rev_at_epoch": 499,
        "meta_bstar": 0.0015515417,
        "meta_mean_motion_dot": 0.000868,
        "meta_mean_motion_ddot": 0,
        "tle_line1": "1 66643U 25271AC  25351.81182729  .00086800  00000+0  15515-2 0  9996",
        "tle_line2": "2 66643  53.1597 162.8848 0001367  89.1920 270.9246 15.49306868  4992"
      },
      "geometry": {
        "type": "Point",
        "coordinates": [
          144.04547541218602,
          -19.93177784242915
        ]
      }
    },
    {
      "type": "Feature",
      "properties": {
        "norad_id": 66644,
        "name": "STARLINK-35938",
        "group": "last-30-days",
        "lat": -18.34259511295644,
        "lon": 145.42434948675188,
        "alt_km": 421.5029840810239,
        "timestamp": "2025-12-18T10:51:24.514535+00:00",
        "meta_object_name": "STARLINK-35938",
        "meta_object_id": "2025-271AD",
        "meta_epoch": "2025-12-17T19:28:30.485280",
        "meta_mean_motion": 15.49335898,
        "meta_eccentricity": 7.708e-05,
        "meta_inclination": 53.1598,
        "meta_ra_of_asc_node": 162.8827,
        "meta_arg_of_pericenter": 79.426,
        "meta_mean_anomaly": 280.6836,
        "meta_ephemeris_type": 0,
        "meta_classification_type": "U",
        "meta_norad_cat_id": 66644,
        "meta_element_set_no": 999,
        "meta_rev_at_epoch": 499,
        "meta_bstar": 0.0011274472,
        "meta_mean_motion_dot": 0.00062821,
        "meta_mean_motion_ddot": 0,
        "tle_line1": "1 66644U 25271AD  25351.81146395  .00062821  00000+0  11274-2 0  9991",
        "tle_line2": "2 66644  53.1598 162.8827 0000770  79.4260 280.6836 15.49335898  4995"
      },
      "geometry": {
        "type": "Point",
        "coordinates": [
          145.42434948675188,
          -18.34259511295644
        ]
      }
    },
    {
      "type": "Feature",
      "properties": {
        "norad_id": 66645,
        "name": "SHENZHOU-22",
        "group": "last-30-days",
        "lat": -19.772036417069028,
        "lon": -173.96134041676524,
        "alt_km": 394.50665490036954,
        "timestamp": "2025-12-18T10:51:24.514546+00:00",
        "meta_object_name": "SHENZHOU-22",
        "meta_object_id": "2025-272A",
        "meta_epoch": "2025-12-17T17:03:03.263616",
        "meta_mean_motion": 15.59389869,
        "meta_eccentricity": 0.00077031,
        "meta_inclination": 41.4683,
        "meta_ra_of_asc_node": 346.526,
        "meta_arg_of_pericenter": 74.1787,
        "meta_mean_anomaly": 285.99,
        "meta_ephemeris_type": 0,
        "meta_classification_type": "U",
        "meta_norad_cat_id": 66645,
        "meta_element_set_no": 999,
        "meta_rev_at_epoch": 26357,
        "meta_bstar": 0.00025361987,
        "meta_mean_motion_dot": 0.0002035,
        "meta_mean_motion_ddot": 0,
        "tle_line1": "1 66645U 25272A   25351.71045444  .00020350  00000+0  25362-3 0  9990",
        "tle_line2": "2 66645  41.4683 346.5260 0007703  74.1787 285.9900 15.59389869263571"
      },
      "geometry": {
        "type": "Point",
        "coordinates": [
          -173.96134041676524,
          -19.772036417069028
        ]
      }
    }
  ]
}